OBJECT_NAME,OBJECT_ID,EPOCH,MEAN_MOTION,ECCENTRICITY,INCLINATION,RA_OF_ASC_NODE,ARG_OF_PERICENTER,MEAN_ANOMALY,EPHEMERIS_TYPE,CLASSIFICATION_TYPE,NORAD_CAT_ID,ELEMENT_SET_NO,REV_AT_EPOCH,BSTAR,MEAN_MOTION_DOT,MEAN_MOTION_DDOT
GSAT-16,2014-078A,2026-06-15T00:25:43.605120,1.00271100,.00075416,0.0843,90.3644,357.8127,236.6522,0,U,40332,999,4208,0,.9E-6,0
DIRECTV 14,2014-078B,2026-06-14T22:54:02.204352,1.00269958,.00003824,0.0128,21.6834,248.8084,237.0174,0,U,40333,999,4202,0,-.12E-5,0
YAMAL 401,2014-082A,2026-06-14T10:06:48.319776,1.00272921,.00002103,0.0166,275.2640,306.1490,282.9753,0,U,40345,999,4189,0,-.221E-5,0
ASTRA 2G,2014-089A,2026-06-15T06:21:05.580288,1.00272671,.00044789,0.0460,349.9682,79.1026,317.9571,0,U,40364,999,4194,0,.154E-5,0
FENGYUN 2G,2014-090A,2026-06-14T18:42:51.437664,1.00273198,.0003942,5.6329,72.8457,155.9654,54.6513,0,U,40367,999,4197,0,-.301E-5,0
MUOS-3,2015-002A,2026-06-14T23:18:03.312288,1.00271640,.00518217,4.5166,43.5151,178.1314,15.6979,0,U,40374,999,4156,0,-.127E-5,0
INMARSAT 5-F2,2015-005A,2026-06-15T05:57:22.853952,1.00270940,.00006795,0.0173,1.3932,285.9268,10.5641,0,U,40384,999,4097,0,-.282E-5,0
ABS-3A,2015-010A,2026-06-14T14:48:14.217408,1.00272172,.0002129,0.0373,52.4733,342.4445,87.0276,0,U,40424,999,4135,0,0,0
EUTELSAT 115 WEST B,2015-010B,2026-06-14T22:49:40.122912,1.00269789,.00002444,0.0430,168.0991,255.4768,67.1796,0,U,40425,999,4137,0,-.19E-6,0
EXPRESS-AM7,2015-012A,2026-06-15T06:24:27.757152,1.00269500,.00028066,0.0183,12.1522,79.3896,308.1126,0,U,40505,999,4098,0,.154E-5,0
BEIDOU-3S IGSO-1S,2015-019A,2026-06-14T20:12:21.455136,1.00250661,.00391338,49.1999,295.4904,191.2000,171.1730,0,U,40549,999,4105,0,-.179E-5,0
THOR 7,2015-022A,2026-06-15T06:12:51.369696,1.00271826,.00023567,0.0431,111.2560,333.5639,271.2875,0,U,40613,999,4079,0,-.5E-7,0
TURKMENALEM52E/MONACOSAT,2015-023A,2026-06-15T04:45:11.949408,1.00270017,.00026274,0.0318,70.5607,7.2969,308.9382,0,U,40617,999,4082,0,.108E-5,0
DIRECTV 15,2015-026A,2026-06-15T06:39:39.874176,1.00276521,.00002776,0.0162,20.7674,308.0997,291.7459,0,U,40663,999,4044,0,-.1E-5,0
SKY MEXICO-1,2015-026B,2026-06-15T05:00:07.771392,1.00270638,.00019911,0.0176,4.3544,102.2268,153.1497,0,U,40664,999,4043,0,-.23E-5,0
METEOSAT-11 (MSG-4),2015-034A,2026-06-15T06:15:43.595136,1.00279763,.00017551,3.1967,71.1216,10.4371,285.5308,0,U,40732,999,719,0,.67E-6,0
STAR ONE C4,2015-034B,2026-06-15T04:10:20.243424,1.00270159,.00019897,0.0352,39.2672,35.0181,181.7672,0,U,40733,999,3999,0,-.261E-5,0
WGS F7 (USA 263),2015-036A,2026-06-14T23:09:38.814048,1.00269744,.0000428,0.0023,354.6408,331.1187,99.9030,0,U,40746,999,3984,0,.22E-6,0
INTELSAT 34 (IS-34),2015-039A,2026-06-15T05:57:07.878240,1.00272132,.00005447,0.0108,337.7344,357.0361,322.5663,0,U,40874,999,3961,0,-.282E-5,0
EUTELSAT 8 WEST B,2015-039B,2026-06-15T06:10:44.073120,1.00271801,.00039142,0.0657,10.5926,70.2134,267.4264,0,U,40875,999,3963,0,-.62E-6,0
GSAT-6,2015-041A,2026-06-14T23:45:56.456928,1.00272433,.00033246,1.9139,82.6233,355.7613,263.9128,0,U,40880,999,3957,0,-.157E-5,0
INMARSAT 5-F3,2015-042A,2026-06-15T05:21:38.452608,1.00270111,.00000728,0.0176,8.4624,343.8922,171.1985,0,U,40882,999,3955,0,.54E-6,0
MUOS-4,2015-044A,2026-06-15T04:02:21.698880,1.00270719,.00577698,4.3261,42.2330,2.1172,354.6812,0,U,40887,999,3953,0,-.92E-6,0
TJS-1,2015-046A,2026-06-15T08:19:55.504416,1.00270959,.00054609,0.3189,84.9226,358.5664,100.1869,0,U,40892,999,3955,0,-.153E-5,0
EXPRESS-AM8,2015-048A,2026-06-15T04:26:21.255072,1.00270658,.00004921,0.0141,309.1100,4.7225,2.2298,0,U,40895,999,3932,0,-.107E-5,0
BEIDOU-3S IGSO-2S,2015-053A,2026-06-14T19:46:42.792960,1.00259392,.00657166,49.2253,258.8113,192.1261,204.1557,0,U,40938,999,3933,0,-.131E-5,0
SKY MUSTER 1 (NBN1A),2015-054A,2026-06-15T06:53:02.516352,1.00269704,.00015216,0.0252,338.8418,109.1291,59.1019,0,U,40940,999,3924,0,0,0
ARSAT 2,2015-054B,2026-06-15T04:07:13.042272,1.00271115,.0001945,0.0313,53.2654,14.6707,176.3286,0,U,40941,999,3928,0,-.221E-5,0
MORELOS 3,2015-056A,2026-06-15T05:40:42.133728,1.00273041,.00011864,3.1852,15.0216,4.0306,216.5537,0,U,40946,999,3926,0,-.42E-6,0
APSTAR-9,2015-059A,2026-06-15T06:53:32.467776,1.00272146,.00022305,0.0293,40.5839,148.8934,319.4929,0,U,40982,999,3910,0,-.262E-5,0
TURKSAT 4B,2015-060A,2026-06-15T06:27:12.494304,1.00270875,.00021419,0.0341,73.3509,354.1107,342.8692,0,U,40984,999,3907,0,.119E-5,0
ZHONGXING-2C,2015-063A,2026-06-15T01:00:38.786112,1.00271836,.00075817,0.2670,90.0400,98.8431,193.0675,0,U,41021,999,3895,0,-.319E-5,0
