GSAT-16                 
1 40332U 14078A   26166.01786580  .00000090  00000+0  00000+0 0  9995
2 40332   0.0843  90.3644 0007541 357.8127 236.6522  1.00271100 42087
DIRECTV 14              
1 40333U 14078B   26165.95419218 -.00000120  00000+0  00000+0 0  9994
2 40333   0.0128  21.6834 0000382 248.8084 237.0174  1.00269958 42029
YAMAL 401               
1 40345U 14082A   26165.42139259 -.00000221  00000+0  00000+0 0  9990
2 40345   0.0166 275.2640 0000210 306.1490 282.9753  1.00272921 41895
ASTRA 2G                
1 40364U 14089A   26166.26464792  .00000154  00000+0  00000+0 0  9998
2 40364   0.0460 349.9682 0004478  79.1026 317.9571  1.00272671 41945
FENGYUN 2G              
1 40367U 14090A   26165.77976201 -.00000301  00000+0  00000+0 0  9996
2 40367   5.6329  72.8457 0003942 155.9654  54.6513  1.00273198 41979
MUOS-3                  
1 40374U 15002A   26165.97087167 -.00000127  00000+0  00000+0 0  9990
2 40374   4.5166  43.5151 0051821 178.1314  15.6979  1.00271640 41567
INMARSAT 5-F2           
1 40384U 15005A   26166.24818118 -.00000282  00000+0  00000+0 0  9995
2 40384   0.0173   1.3932 0000679 285.9268  10.5641  1.00270940 40972
ABS-3A                  
1 40424U 15010A   26165.61683122  .00000000  00000+0  00000+0 0  9998
2 40424   0.0373  52.4733 0002129 342.4445  87.0276  1.00272172 41358
EUTELSAT 115 WEST B     
1 40425U 15010B   26165.95115883 -.00000019  00000+0  00000+0 0  9991
2 40425   0.0430 168.0991 0000244 255.4768  67.1796  1.00269789 41378
EXPRESS-AM7             
1 40505U 15012A   26166.26698793  .00000154  00000+0  00000+0 0  9992
2 40505   0.0183  12.1522 0002806  79.3896 308.1126  1.00269500 40984
BEIDOU-3S IGSO-1S       
1 40549U 15019A   26165.84191499 -.00000179  00000+0  00000+0 0  9999
2 40549  49.1999 295.4904 0039133 191.2000 171.1730  1.00250661 41051
THOR 7                  
1 40613U 15022A   26166.25892789 -.00000005  00000+0  00000+0 0  9999
2 40613   0.0431 111.2560 0002356 333.5639 271.2875  1.00271826 40797
TURKMENALEM52E/MONACOSAT
1 40617U 15023A   26166.19805497  .00000108  00000+0  00000+0 0  9990
2 40617   0.0318  70.5607 0002627   7.2969 308.9382  1.00270017 40822
DIRECTV 15              
1 40663U 15026A   26166.27754484 -.00000100  00000+0  00000+0 0  9995
2 40663   0.0162  20.7674 0000277 308.0997 291.7459  1.00276521 40441
SKY MEXICO-1            
1 40664U 15026B   26166.20842328 -.00000230  00000+0  00000+0 0  9998
2 40664   0.0176   4.3544 0001991 102.2268 153.1497  1.00270638 40435
METEOSAT-11 (MSG-4)     
1 40732U 15034A   26166.26092124  .00000067  00000+0  00000+0 0  9997
2 40732   3.1967  71.1216 0001755  10.4371 285.5308  1.00279763  7199
STAR ONE C4             
1 40733U 15034B   26166.17384541 -.00000261  00000+0  00000+0 0  9992
2 40733   0.0352  39.2672 0001989  35.0181 181.7672  1.00270159 39990
WGS F7 (USA 263)        
1 40746U 15036A   26165.96503257  .00000022  00000+0  00000+0 0  9995
2 40746   0.0023 354.6408 0000428 331.1187  99.9030  1.00269744 39843
INTELSAT 34 (IS-34)     
1 40874U 15039A   26166.24800785 -.00000282  00000+0  00000+0 0  9997
2 40874   0.0108 337.7344 0000544 357.0361 322.5663  1.00272132 39617
EUTELSAT 8 WEST B       
1 40875U 15039B   26166.25745455 -.00000062  00000+0  00000+0 0  9997
2 40875   0.0657  10.5926 0003914  70.2134 267.4264  1.00271801 39633
GSAT-6                  
1 40880U 15041A   26165.99023677 -.00000157  00000+0  00000+0 0  9996
2 40880   1.9139  82.6233 0003324 355.7613 263.9128  1.00272433 39578
INMARSAT 5-F3           
1 40882U 15042A   26166.22336172  .00000054  00000+0  00000+0 0  9998
2 40882   0.0176   8.4624 0000072 343.8922 171.1985  1.00270111 39559
MUOS-4                  
1 40887U 15044A   26166.16830670 -.00000092  00000+0  00000+0 0  9993
2 40887   4.3261  42.2330 0057769   2.1172 354.6812  1.00270719 39532
TJS-1                   
1 40892U 15046A   26166.34717019 -.00000153  00000+0  00000+0 0  9990
2 40892   0.3189  84.9226 0005460 358.5664 100.1869  1.00270959 39559
EXPRESS-AM8             
1 40895U 15048A   26166.18496823 -.00000107  00000+0  00000+0 0  9993
2 40895   0.0141 309.1100 0000492   4.7225   2.2298  1.00270658 39322
BEIDOU-3S IGSO-2S       
1 40938U 15053A   26165.82410640 -.00000131  00000+0  00000+0 0  9997
2 40938  49.2253 258.8113 0065716 192.1261 204.1557  1.00259392 39339
SKY MUSTER 1 (NBN1A)    
1 40940U 15054A   26166.28683468  .00000000  00000+0  00000+0 0  9996
2 40940   0.0252 338.8418 0001521 109.1291  59.1019  1.00269704 39247
ARSAT 2                 
1 40941U 15054B   26166.17167873 -.00000221  00000+0  00000+0 0  9998
2 40941   0.0313  53.2654 0001945  14.6707 176.3286  1.00271115 39289
MORELOS 3               
1 40946U 15056A   26166.23659877 -.00000042  00000+0  00000+0 0  9993
2 40946   3.1852  15.0216 0001186   4.0306 216.5537  1.00273041 39265
APSTAR-9                
1 40982U 15059A   26166.28718134 -.00000262  00000+0  00000+0 0  9997
2 40982   0.0293  40.5839 0002230 148.8934 319.4929  1.00272146 39105
TURKSAT 4B              
1 40984U 15060A   26166.26889461  .00000119  00000+0  00000+0 0  9991
2 40984   0.0341  73.3509 0002141 354.1107 342.8692  1.00270875 39074
ZHONGXING-2C            
1 41021U 15063A   26166.04211558 -.00000319  00000+0  00000+0 0  9992
2 41021   0.2670  90.0400 0007581  98.8431 193.0675  1.00271836 38956
